NORAD_CAT_ID,OBJECT_NAME,OBJECT_TYPE,EPOCH,MEAN_MOTION,ECCENTRICITY,INCLINATION,RA_OF_ASC_NODE,ARG_OF_PERICENTER,MEAN_ANOMALY,BSTAR,MEAN_MOTION_DOT,MEAN_MOTION_DDOT,TLE_LINE0,TLE_LINE1,TLE_LINE2,SEMIMAJOR_AXIS,PERIOD,APOGEE,PERIGEE,DECAYED
49138.0,STARLINK-3058,PAYLOAD,2023-11-02 09:08:37,14.98384465,0.0002609,69.999,298.5632,266.6492,93.4369,0.0005438,6.41e-05,0.0,0 STARLINK-3058,1 49138U 21082J   23306.38098607  .00006410  00000-0  54380-3 0  9997,2 49138  69.9990 298.5632 0002609 266.6492  93.4369 14.98384465117416,6950.024,96.104,573.703,570.076,0.0
49138.0,STARLINK-3058,PAYLOAD,2023-11-02 17:09:20,14.98331303,0.0002815,69.9994,297.7209,255.8811,104.2035,9.8084e-05,1.078e-05,0.0,0 STARLINK-3058,1 49138U 21082J   23306.71482540  .00001078  00000-0  98084-4 0  9992,2 49138  69.9994 297.7209 0002815 255.8811 104.2035 14.98331303117464,6950.189,96.107,574.01,570.097,0.0
49138.0,STARLINK-3058,PAYLOAD,2023-11-03 09:10:41,14.98330534,0.0002717,69.9985,296.0384,260.5931,99.4921,8.7989e-05,9.57e-06,0.0,0 STARLINK-3058,1 49138U 21082J   23307.38242591  .00000957  00000-0  87989-4 0  9993,2 49138  69.9985 296.0384 0002717 260.5931  99.4921 14.98330534117562,6950.191,96.107,573.945,570.168,0.0
49138.0,STARLINK-3058,PAYLOAD,2023-11-03 21:59:46,14.98331456,0.0002966,69.9984,294.6918,270.2276,89.8543,0.00010815,1.198e-05,0.0,0 STARLINK-3058,1 49138U 21082J   23307.91650491  .00001198  00000-0  10815-3 0  9995,2 49138  69.9984 294.6918 0002966 270.2276  89.8543 14.98331456117640,6950.188,96.107,574.115,569.992,0.0
49138.0,STARLINK-3058,PAYLOAD,2023-11-04 04:24:18,14.98336629,0.00027,69.9985,294.0182,271.7438,88.3411,2.2518e-05,1.76e-06,0.0,0 STARLINK-3058,1 49138U 21082J   23308.18354356  .00000176  00000-0  22518-4 0  9995,2 49138  69.9985 294.0182 0002700 271.7438  88.3411 14.98336629117689,6950.172,96.107,573.914,570.161,0.0
49138.0,STARLINK-3058,PAYLOAD,2023-11-04 09:12:42,14.98336984,0.0002904,69.9982,293.5129,267.4075,92.6752,0.0001379,1.553e-05,0.0,0 STARLINK-3058,1 49138U 21082J   23308.38382048  .00001553  00000-0  13790-3 0  9997,2 49138  69.9982 293.5129 0002904 267.4075  92.6752 14.98336984117710,6950.171,96.107,574.055,570.018,0.0
49138.0,STARLINK-3058,PAYLOAD,2023-11-05 04:26:19,14.98334363,0.0002754,69.9987,291.4929,269.9836,90.1007,0.00013214,1.484e-05,0.0,0 STARLINK-3058,1 49138U 21082J   23309.18494263  .00001484  00000-0  13214-3 0  9993,2 49138  69.9987 291.4929 0002754 269.9836  90.1007 14.98334363117833,6950.179,96.107,573.958,570.13,0.0
49138.0,STARLINK-3058,PAYLOAD,2023-11-05 09:14:42,14.98339563,0.000279,69.9987,290.9881,266.5679,93.5161,0.00019485,2.233e-05,0.0,0 STARLINK-3058,1 49138U 21082J   23309.38521723  .00002233  00000-0  19485-3 0  9996,2 49138  69.9987 290.9881 0002790 266.5679  93.5161 14.98339563117860,6950.163,96.106,573.967,570.089,0.0
49138.0,STARLINK-3058,PAYLOAD,2023-11-05 15:39:15,14.98333448,0.0002554,69.9998,290.3141,268.5797,91.5069,0.00014764,1.669e-05,0.0,0 STARLINK-3058,1 49138U 21082J   23309.65226195  .00001669  00000-0  14764-3 0  9998,2 49138  69.9998 290.3141 0002554 268.5797  91.5069 14.98333448117902,6950.182,96.107,573.822,570.272,0.0
49138.0,STARLINK-3058,PAYLOAD,2023-11-06 07:40:35,14.98347212,0.0002558,70.001,288.632,272.4746,87.612,0.00030669,3.57e-05,0.0,0 STARLINK-3058,1 49138U 21082J   23310.31985177  .00003570  00000-0  30669-3 0  9990,2 49138  70.0010 288.6320 0002558 272.4746  87.6120 14.98347212118001,6950.14,96.106,573.783,570.227,0.0
49138.0,STARLINK-3058,PAYLOAD,2023-11-06 15:41:15,14.98342955,0.000243,70.0011,287.7892,281.9915,78.0972,-0.00049386,-5.982e-05,0.0,0 STARLINK-3058,1 49138U 21082J   23310.65365183 -.00005982  00000-0 -49386-3 0  9993,2 49138  70.0011 287.7892 0002430 281.9915  78.0972 14.98342955118051,6950.153,96.106,573.707,570.329,0.0
49138.0,STARLINK-3058,PAYLOAD,2023-11-07 04:30:22,14.98309159,0.0002415,70.0006,286.4429,269.6367,90.4516,-0.00030107,-3.681e-05,0.0,0 STARLINK-3058,1 49138U 21082J   23311.18775546 -.00003681  00000-0 -30107-3 0  9995,2 49138  70.0006 286.4429 0002415 269.6367  90.4516 14.98309159118134,6950.257,96.108,573.801,570.444,0.0
49138.0,STARLINK-3058,PAYLOAD,2023-11-07 09:18:46,14.98305881,0.000264,70.0001,285.9379,271.1457,88.9399,-0.00034184,-4.167e-05,0.0,0 STARLINK-3058,1 49138U 21082J   23311.38803965 -.00004167  00000-0 -34184-3 0  9993,2 49138  70.0001 285.9379 0002640 271.1457  88.9399 14.98305881118167,6950.267,96.109,573.967,570.298,0.0
49138.0,STARLINK-3058,PAYLOAD,2023-11-08 04:32:23,14.98322913,0.0002638,69.9998,283.9177,269.7006,90.3851,7.7037e-06,-1e-08,0.0,0 STARLINK-3058,1 49138U 21082J   23312.18915875 -.00000001  00000-0  77037-5 0  9994,2 49138  69.9998 283.9177 0002638 269.7006  90.3851 14.98322913118281,6950.215,96.107,573.913,570.246,0.0
49138.0,STARLINK-3058,PAYLOAD,2023-11-08 07:44:39,14.98327201,0.000272,69.9997,283.5813,273.3178,86.767,0.00012037,1.343e-05,0.0,0 STARLINK-3058,1 49138U 21082J   23312.32267755  .00001343  00000-0  12037-3 0  9993,2 49138  69.9997 283.5813 0002720 273.3178  86.7670 14.98327201118302,6950.202,96.107,573.957,570.176,0.0
49138.0,STARLINK-3058,PAYLOAD,2023-11-08 15:45:19,14.98334704,0.0002808,70.0011,282.7404,275.6673,84.4166,0.00025025,2.895e-05,0.0,0 STARLINK-3058,1 49138U 21082J   23312.65647464  .00002895  00000-0  25025-3 0  9992,2 49138  70.0011 282.7404 0002808 275.6673  84.4166 14.98334704118357,6950.178,96.107,573.995,570.092,0.0
49138.0,STARLINK-3058,PAYLOAD,2023-11-08 22:09:52,14.98328273,0.000295,70.0002,282.0676,275.8993,84.183,0.00064612,7.624e-05,0.0,0 STARLINK-3058,1 49138U 21082J   23312.92351968  .00007624  00000-0  64612-3 0  9993,2 49138  70.0002 282.0676 0002950 275.8993  84.1830 14.98328273118399,6950.198,96.107,574.114,570.013,0.0
49138.0,STARLINK-3058,PAYLOAD,2023-11-09 04:34:23,14.9835404,0.0002538,70.0003,281.3941,270.4876,89.5993,0.0010117,0.00012006,0.0,0 STARLINK-3058,1 49138U 21082J   23313.19054715  .00012006  00000-0  10117-2 0  9993,2 49138  70.0003 281.3941 0002538 270.4876  89.5993 14.98354040118435,6950.119,96.105,573.747,570.22,0.0
49138.0,STARLINK-3058,PAYLOAD,2023-11-09 07:46:39,14.98344999,0.0002665,70.0,281.0575,274.9801,85.1054,0.00075654,8.949e-05,0.0,0 STARLINK-3058,1 49138U 21082J   23313.32407063  .00008949  00000-0  75654-3 0  9995,2 49138  70.0000 281.0575 0002665 274.9801  85.1054 14.98344999118454,6950.147,96.106,573.864,570.159,0.0
49138.0,STARLINK-3058,PAYLOAD,2023-11-09 15:47:20,14.98335535,0.0002631,70.0006,280.216,275.1277,84.9582,0.00040503,4.744e-05,0.0,0 STARLINK-3058,1 49138U 21082J   23313.65787451  .00004744  00000-0  40503-3 0  9997,2 49138  70.0006 280.2160 0002631 275.1277  84.9582 14.98335535118509,6950.176,96.107,573.869,570.212,0.0
49138.0,STARLINK-3058,PAYLOAD,2023-11-09 22:11:52,14.98336851,0.0002342,70.0005,279.5425,274.5531,85.5361,0.00026338,3.052e-05,0.0,0 STARLINK-3058,1 49138U 21082J   23313.92491275  .00003052  00000-0  26338-3 0  9994,2 49138  70.0005 279.5425 0002342 274.5531  85.5361 14.98336851118546,6950.172,96.107,573.664,570.409,0.0
49138.0,STARLINK-3058,PAYLOAD,2023-11-10 07:48:40,14.98335252,0.0002691,69.9991,278.5323,271.7443,88.3408,0.00024168,2.792e-05,0.0,0 STARLINK-3058,1 49138U 21082J   23314.32547246  .00002792  00000-0  24168-3 0  9998,2 49138  69.9991 278.5323 0002691 271.7443  88.3408 14.98335252118605,6950.177,96.107,573.912,570.171,0.0
49138.0,STARLINK-3058,PAYLOAD,2023-11-10 22:13:52,14.98344177,0.0002448,69.9995,277.0173,277.7171,82.371,-6.777e-05,-9.02e-06,0.0,0 STARLINK-3058,1 49138U 21082J   23314.92630747 -.00000902  00000-0 -67770-4 0  9993,2 49138  69.9995 277.0173 0002448 277.7171  82.3710 14.98344177118695,6950.149,96.106,573.715,570.313,0.0
49138.0,STARLINK-3058,PAYLOAD,2023-11-11 03:02:17,14.98342007,0.0002549,69.9994,276.5115,274.9345,85.1523,-6.543e-05,-8.74e-06,0.0,0 STARLINK-3058,1 49138U 21082J   23315.12658654 -.00000874  00000-0 -65430-4 0  9992,2 49138  69.9994 276.5115 0002549 274.9345  85.1523 14.98342007118725,6950.156,96.106,573.792,570.249,0.0
49138.0,STARLINK-3058,PAYLOAD,2023-11-11 14:15:12,14.98353719,0.0002695,69.9995,275.3328,272.9779,87.1072,-0.00030873,-3.777e-05,0.0,0 STARLINK-3058,1 49138U 21082J   23315.59389808 -.00003777  00000-0 -30873-3 0  9992,2 49138  69.9995 275.3328 0002695 272.9779  87.1072 14.98353719118790,6950.12,96.105,573.858,570.111,0.0
49138.0,STARLINK-3058,PAYLOAD,2023-11-11 22:15:53,14.98334786,0.0002599,69.9992,274.4913,269.5893,90.4968,0.00010333,1.14e-05,0.0,0 STARLINK-3058,1 49138U 21082J   23315.92770295  .00001140  00000-0  10333-3 0  9992,2 49138  69.9992 274.4913 0002599 269.5893  90.4968 14.98334786118849,6950.178,96.107,573.849,570.237,0.0
49138.0,STARLINK-3058,PAYLOAD,2023-11-12 03:04:17,14.9833346,0.0002682,69.9989,273.9864,268.6162,91.469,8.7087e-05,9.46e-06,0.0,0 STARLINK-3058,1 49138U 21082J   23316.12798320  .00000946  00000-0  87087-4 0  9998,2 49138  69.9989 273.9864 0002682 268.6162  91.4690 14.98333460118870,6950.182,96.107,573.911,570.183,0.0
49138.0,STARLINK-3058,PAYLOAD,2023-11-12 06:16:33,14.98333688,0.0002362,69.9998,273.6509,257.6766,102.4129,9.0048e-05,9.82e-06,0.0,0 STARLINK-3058,1 49138U 21082J   23316.26150357  .00000982  00000-0  90048-4 0  9996,2 49138  69.9998 273.6509 0002362 257.6766 102.4129 14.98333688118890,6950.181,96.107,573.688,570.405,0.0
49138.0,STARLINK-3058,PAYLOAD,2023-11-12 22:17:54,14.983343,0.000247,69.9996,271.9671,256.3236,103.7648,0.00012643,1.416e-05,0.0,0 STARLINK-3058,1 49138U 21082J   23316.92909949  .00001416  00000-0  12643-3 0  9995,2 49138  69.9996 271.9671 0002470 256.3236 103.7648 14.98334300118990,6950.18,96.107,573.761,570.328,0.0
49138.0,STARLINK-3058,PAYLOAD,2023-11-13 03:06:18,14.98333687,0.0002564,69.9995,271.4628,255.2448,104.8427,9.8648e-05,1.084e-05,0.0,0 STARLINK-3058,1 49138U 21082J   23317.12937994  .00001084  00000-0  98648-4 0  9990,2 49138  69.9995 271.4628 0002564 255.2448 104.8427 14.98333687119022,6950.181,96.107,573.829,570.264,0.0
